IRIDIUM 57              
1 25273U 98019B   24246.80984053  .00001138  00000+0  39010-3 0  9999
2 25273  86.3903 265.5955 0002253  90.5889 269.5565 14.35366062383556
IRIDIUM 63              
1 25286U 98021B   24246.94286012  .00001795  00000+0  61213-3 0  9990
2 25286  86.4027 202.4646 0002561  89.1179 271.0312 14.35948197382612
IRIDIUM 69              
1 25319U 98026A   24246.92109778  .00001573  00000+0  49150-3 0  9993
2 25319  86.3993 216.6141 0000728 157.4805 202.6426 14.40196601381701
IRIDIUM 73              
1 25344U 98032C   24246.83240096  .00002555  00000+0  64381-3 0  9991
2 25344  86.4493 168.7539 0001977  92.0442 268.0989 14.50814973388887
IRIDIUM 82              
1 25467U 98051A   24246.71412993  .00028562  00000+0  13336-2 0  9991
2 25467  86.3691 248.8852 0116414 295.1743  63.7459 15.13760517380207
